52023,SPACEBEE-116,2022,92.03,2.0,+,97.49,Active,1,LEO,USA,USA,Commercial,Communications,Rocket,1 52023U 22026R   24020.59541048  .00210094  00000+0  20721-2 0  9997,2 52023  97.4913  36.3945 0009468  37.5187 322.6731 15.65215939103065,15.65215939,0.0009468,LEO
52024,SPACEBEE-113,2022,91.71,2.0,+,97.49,Active,1,LEO,USA,USA,Commercial,Communications,Rocket,1 52024U 22026S   24020.56059769  .00295902  00000+0  23137-2 0  9994,2 52024  97.4860  36.9597 0008748  38.3146 321.8736 15.70701228103108,15.70701228,0.0008748,LEO
52027,SPACEBEE-123,2022,92.03,2.0,+,97.49,Active,1,LEO,USA,USA,Commercial,Communications,Rocket,1 52027U 22026V   24020.55509529  .00213234  00000+0  20895-2 0  9996,2 52027  97.4897  35.9793 0009763  38.6651 321.5306 15.65366398102951,15.65366398,0.0009763,LEO
52029,SPACEBEE-124,2022,92.01,2.0,+,97.49,Active,1,LEO,USA,USA,Commercial,Communications,Rocket,1 52029U 22026X   24020.55174185  .00230308  00000+0  22251-2 0  9993,2 52029  97.4878  35.9513 0009778  37.5134 322.6806 15.65670462101677,15.65670462,0.0009778,LEO
52394,SPACEBEE-143,2022,92.95,2.0,+,97.4,Active,1,LEO,New Zealand,USA,Commercial,Communications,Electron,1 52394U 22047A   24020.19145122  .00101473  00000+0  18305-2 0  9995,2 52394  97.4016 110.3735 0004952 297.7154  62.3594 15.49380793 96998,15.49380793,0.0004952,LEO
52401,SPACEBEE-142,2022,93.01,2.0,+,97.4,Active,1,LEO,New Zealand,USA,Commercial,Communications,Electron,1 52401U 22047H   24020.22828662  .00098539  00000+0  18386-2 0  9992,2 52401  97.4003 110.1192 0004753 298.0515  62.0254 15.48424612 96989,15.48424612,0.0004753,LEO
52406,SPACEBEE-148,2022,92.19,2.0,+,97.4,Active,1,LEO,New Zealand,USA,Commercial,Communications,Electron,1 52406U 22047N   24020.22103214  .00210069  00000+0  23119-2 0  9990,2 52406  97.3958 112.5326 0006162 293.8895  66.1717 15.62442086 97146,15.62442086,0.0006162,LEO
52407,SPACEBEE-149,2022,92.84,2.0,+,97.4,Active,1,LEO,New Zealand,USA,Commercial,Communications,Electron,1 52407U 22047P   24020.55924350  .00116311  00000+0  19486-2 0  9996,2 52407  97.4007 111.0174 0005545 294.8318  65.2357 15.51420036 97074,15.51420036,0.0005545,LEO
52409,SPACEBEE-150,2022,92.98,2.0,+,97.4,Active,1,LEO,New Zealand,USA,Commercial,Communications,Electron,1 52409U 22047R   24020.21714301  .00095567  00000+0  17485-2 0  9990,2 52409  97.4013 110.2890 0005119 297.7480  62.3252 15.48998306 96996,15.48998306,0.0005119,LEO
52410,SPACEBEE-144,2022,93.01,2.0,+,97.4,Active,1,LEO,New Zealand,USA,Commercial,Communications,Electron,1 52410U 22047S   24020.19473948  .00093444  00000+0  17457-2 0  9999,2 52410  97.4016 110.2164 0004880 299.9584  60.1182 15.48408541 96982,15.48408541,0.000488,LEO
52411,SPACEBEE-145,2022,92.99,2.0,+,97.4,Active,1,LEO,New Zealand,USA,Commercial,Communications,Electron,1 52411U 22047T   24020.24553191  .00091380  00000+0  16849-2 0  9996,2 52411  97.4017 110.2752 0004851 298.4188  61.6574 15.48793670 96991,15.4879367,0.0004851,LEO
52412,SPACEBEE-146,2022,92.93,2.0,+,97.4,Active,1,LEO,New Zealand,USA,Commercial,Communications,Electron,1 52412U 22047U   24020.19639890  .00103026  00000+0  18278-2 0  9991,2 52412  97.3997 110.3099 0004856 298.6560  61.4202 15.49850783 96990,15.49850783,0.0004856,LEO
52413,SPACEBEE-151,2022,93.0,2.0,+,97.4,Active,1,LEO,New Zealand,USA,Commercial,Communications,Electron,1 52413U 22047V   24020.21096591  .00095563  00000+0  17762-2 0  9993,2 52413  97.4011 110.1279 0005269 299.6594  60.4132 15.48544948 96986,15.48544948,0.0005269,LEO
52415,SPACEBEE-147,2022,93.08,2.0,+,97.4,Active,1,LEO,New Zealand,USA,Commercial,Communications,Electron,1 52415U 22047X   24020.19468472  .00087942  00000+0  17137-2 0  9991,2 52415  97.4021 109.9173 0004933 301.8582  58.2187 15.47210246 96961,15.47210246,0.0004933,LEO
52416,SPACEBEE-155,2022,93.11,2.0,+,97.4,Active,1,LEO,New Zealand,USA,Commercial,Communications,Electron,1 52416U 22047Y   24020.19565833  .00087840  00000+0  17406-2 0  9997,2 52416  97.3986 109.2634 0005575 305.2184  54.8543 15.46720597 96934,15.46720597,0.0005575,LEO
52417,SPACEBEE-154,2022,93.06,2.0,+,97.4,Active,1,LEO,New Zealand,USA,Commercial,Communications,Electron,1 52417U 22047Z   24020.46820794  .00096286  00000+0  18447-2 0  9998,2 52417  97.4011 110.0834 0005405 301.5764  58.4958 15.47666951 97005,15.47666951,0.0005405,LEO
55092,SPACEBEE-166,2023,93.93,2.0,+,97.45,Active,1,LEO,USA,USA,Commercial,Communications,Falcon,1 55092U 23001CM  24020.60489439  .00041316  00000+0  12846-2 0  9995,2 55092  97.4455  85.3774 0011889 322.1424  37.8981 15.33142783 58260,15.33142783,0.0011889,LEO
55094,SPACEBEE-165,2023,94.02,2.0,+,97.45,Active,1,LEO,USA,USA,Commercial,Communications,Falcon,1 55094U 23001CP  24020.11838547  .00041096  00000+0  13405-2 0  9998,2 55094  97.4464  84.5227 0010476 325.0346  35.0206 15.31623797 58168,15.31623797,0.0010476,LEO
55095,SPACEBEE-162,2023,94.05,2.0,+,97.45,Active,1,LEO,USA,USA,Commercial,Communications,Falcon,1 55095U 23001CQ  24020.41806261  .00037662  00000+0  12428-2 0  9998,2 55095  97.4470  84.7479 0011186 323.5933  36.4546 15.31263065 58206,15.31263065,0.0011186,LEO
55096,SPACEBEE-161,2023,94.04,2.0,+,97.45,Active,1,LEO,USA,USA,Commercial,Communications,Falcon,1 55096U 23001CR  24020.13722425  .00041625  00000+0  13657-2 0  9996,2 55096  97.4473  84.5101 0011295 324.1118  35.9363 15.31423772 58162,15.31423772,0.0011295,LEO
55099,SPACEBEE-156,2023,94.01,2.0,+,97.45,Active,1,LEO,USA,USA,Commercial,Communications,Falcon,1 55099U 23001CU  24020.16379375  .00042254  00000+0  13691-2 0  9991,2 55099  97.4463  84.6218 0011190 324.0266  36.0221 15.31823935 58172,15.31823935,0.001119,LEO
