OBJECT_NAME,OBJECT_ID,EPOCH,MEAN_MOTION,ECCENTRICITY,INCLINATION,RA_OF_ASC_NODE,ARG_OF_PERICENTER,MEAN_ANOMALY,EPHEMERIS_TYPE,CLASSIFICATION_TYPE,NORAD_CAT_ID,ELEMENT_SET_NO,REV_AT_EPOCH,BSTAR,MEAN_MOTION_DOT,MEAN_MOTION_DDOT
SPACEBEE-116,2022-026R,2024-01-20T14:17:23.465472,15.65215939,.0009468,97.4913,36.3945,37.5187,322.6731,0,U,52023,999,10306,.20721E-2,.210094E-2,0
SPACEBEE-113,2022-026S,2024-01-20T13:27:15.640416,15.70701228,.0008748,97.4860,36.9597,38.3146,321.8736,0,U,52024,999,10310,.23137E-2,.295902E-2,0
SPACEBEE-123,2022-026V,2024-01-20T13:19:20.233056,15.65366398,.0009763,97.4897,35.9793,38.6651,321.5306,0,U,52027,999,10295,.20895E-2,.213234E-2,0
SPACEBEE-124,2022-026X,2024-01-20T13:14:30.495840,15.65670462,.0009778,97.4878,35.9513,37.5134,322.6806,0,U,52029,999,10167,.22251E-2,.230308E-2,0
SPACEBEE-143,2022-047A,2024-01-20T04:35:41.385408,15.49380793,.0004952,97.4016,110.3735,297.7154,62.3594,0,U,52394,999,9699,.18305E-2,.101473E-2,0
SPACEBEE-142,2022-047H,2024-01-20T05:28:43.963968,15.48424612,.0004753,97.4003,110.1192,298.0515,62.0254,0,U,52401,999,9698,.18386E-2,.98539E-3,0
SPACEBEE-148,2022-047N,2024-01-20T05:18:17.176896,15.62442086,.0006162,97.3958,112.5326,293.8895,66.1717,0,U,52406,999,9714,.23119E-2,.210069E-2,0
SPACEBEE-149,2022-047P,2024-01-20T13:25:18.638400,15.51420036,.0005545,97.4007,111.0174,294.8318,65.2357,0,U,52407,999,9707,.19486E-2,.116311E-2,0
SPACEBEE-150,2022-047R,2024-01-20T05:12:41.156064,15.48998306,.0005119,97.4013,110.2890,297.7480,62.3252,0,U,52409,999,9699,.17485E-2,.95567E-3,0
SPACEBEE-144,2022-047S,2024-01-20T04:40:25.491072,15.48408541,.000488,97.4016,110.2164,299.9584,60.1182,0,U,52410,999,9698,.17457E-2,.93444E-3,0
SPACEBEE-145,2022-047T,2024-01-20T05:53:33.957024,15.48793670,.0004851,97.4017,110.2752,298.4188,61.6574,0,U,52411,999,9699,.16849E-2,.9138E-3,0
SPACEBEE-146,2022-047U,2024-01-20T04:42:48.864960,15.49850783,.0004856,97.3997,110.3099,298.6560,61.4202,0,U,52412,999,9699,.18278E-2,.103026E-2,0
SPACEBEE-151,2022-047V,2024-01-20T05:03:47.454624,15.48544948,.0005269,97.4011,110.1279,299.6594,60.4132,0,U,52413,999,9698,.17762E-2,.95563E-3,0
SPACEBEE-147,2022-047X,2024-01-20T04:40:20.759808,15.47210246,.0004933,97.4021,109.9173,301.8582,58.2187,0,U,52415,999,9696,.17137E-2,.87942E-3,0
SPACEBEE-155,2022-047Y,2024-01-20T04:41:44.879712,15.46720597,.0005575,97.3986,109.2634,305.2184,54.8543,0,U,52416,999,9693,.17406E-2,.8784E-3,0
SPACEBEE-154,2022-047Z,2024-01-20T11:14:13.166016,15.47666951,.0005405,97.4011,110.0834,301.5764,58.4958,0,U,52417,999,9700,.18447E-2,.96286E-3,0
SPACEBEE-166,2023-001CM,2024-01-20T14:31:02.875296,15.33142783,.0011889,97.4455,85.3774,322.1424,37.8981,0,U,55092,999,5826,.12846E-2,.41316E-3,0
SPACEBEE-165,2023-001CP,2024-01-20T02:50:28.504608,15.31623797,.0010476,97.4464,84.5227,325.0346,35.0206,0,U,55094,999,5816,.13405E-2,.41096E-3,0
SPACEBEE-162,2023-001CQ,2024-01-20T10:02:00.609504,15.31263065,.0011186,97.4470,84.7479,323.5933,36.4546,0,U,55095,999,5820,.12428E-2,.37662E-3,0
SPACEBEE-161,2023-001CR,2024-01-20T03:17:36.175200,15.31423772,.0011295,97.4473,84.5101,324.1118,35.9363,0,U,55096,999,5816,.13657E-2,.41625E-3,0
SPACEBEE-156,2023-001CU,2024-01-20T03:55:51.780000,15.31823935,.001119,97.4463,84.6218,324.0266,36.0221,0,U,55099,999,5817,.13691E-2,.42254E-3,0
